[
  {
    "name": "Андорра",
    "english_name": "Andorra",
    "code": "ad",
    "phone_code": "376"
  },
  {
    "name": "Объединенные Арабские Эмираты",
    "english_name": "United Arab Emirates (UAE)",
    "code": "ae",
    "phone_code": "971"
  },
  {
    "name": "Афганистан",
    "english_name": "Afghanistan",
    "code": "af",
    "phone_code": "93"
  },
  {
    "name": "Антигуа и Барбуда",
    "english_name": "Antigua and Barbuda",
    "code": "ag",
    "phone_code": "1"
  },
  {
    "name": "Ангилья",
    "english_name": "Anguilla",
    "code": "ai",
    "phone_code": "1"
  },
  {
    "name": "Албания",
    "english_name": "Albania",
    "code": "al",
    "phone_code": "355"
  },
  {
    "name": "Армения",
    "english_name": "Armenia",
    "code": "am",
    "phone_code": "374"
  },
  {
    "name": "Ангола",
    "english_name": "Angola",
    "code": "ao",
    "phone_code": "244"
  },
  {
    "name": "Антарктида",
    "english_name": "Antarctica",
    "code": "aq",
    "phone_code": "672"
  },
  {
    "name": "Аргентина",
    "english_name": "Argentina",
    "code": "ar",
    "phone_code": "54"
  },
  {
    "name": "Американское Самоа",
    "english_name": "American Samoa",
    "code": "as",
    "phone_code": "1"
  },
  {
    "name": "Австрия",
    "english_name": "Austria",
    "code": "at",
    "phone_code": "43"
  },
  {
    "name": "Австралия",
    "english_name": "Australia",
    "code": "au",
    "phone_code": "61"
  },
  {
    "name": "Аруба",
    "english_name": "Aruba",
    "code": "aw",
    "phone_code": "297"
  },
  {
    "name": "Аландские острова",
    "english_name": "Åland Islands",
    "code": "ax",
    "phone_code": "358"
  },
  {
    "name": "Азербайджан",
    "english_name": "Azerbaijan",
    "code": "az",
    "phone_code": "994"
  },
  {
    "name": "Босния и Герцеговина",
    "english_name": "Bosnia And Herzegovina",
    "code": "ba",
    "phone_code": "387"
  },
  {
    "name": "Барбадос",
    "english_name": "Barbados",
    "code": "bb",
    "phone_code": "1"
  },
  {
    "name": "Бангладеш",
    "english_name": "Bangladesh",
    "code": "bd",
    "phone_code": "880"
  },
  {
    "name": "Бельгия",
    "english_name": "Belgium",
    "code": "be",
    "phone_code": "32"
  },
  {
    "name": "Буркина-Фасо",
    "english_name": "Burkina Faso",
    "code": "bf",
    "phone_code": "226"
  },
  {
    "name": "Болгария",
    "english_name": "Bulgaria",
    "code": "bg",
    "phone_code": "359"
  },
  {
    "name": "Бахрейн",
    "english_name": "Bahrain",
    "code": "bh",
    "phone_code": "973"
  },
  {
    "name": "Бурунди",
    "english_name": "Burundi",
    "code": "bi",
    "phone_code": "257"
  },
  {
    "name": "Бенин",
    "english_name": "Benin",
    "code": "bj",
    "phone_code": "229"
  },
  {
    "name": "Сен-Бартельми",
    "english_name": "Saint Barthélemy",
    "code": "bl",
    "phone_code": "590"
  },
  {
    "name": "Бермудские острова",
    "english_name": "Bermuda",
    "code": "bm",
    "phone_code": "1"
  },
  {
    "name": "Бруней-Даруссалам",
    "english_name": "Brunei Darussalam",
    "code": "bn",
    "phone_code": "673"
  },
  {
    "name": "Боливия, Многонациональное Государство",
    "english_name": "Bolivia, Plurinational State Of",
    "code": "bo",
    "phone_code": "591"
  },
  {
    "name": "Бразилия",
    "english_name": "Brazil",
    "code": "br",
    "phone_code": "55"
  },
  {
    "name": "Багамские о-ва",
    "english_name": "Bahamas",
    "code": "bs",
    "phone_code": "1"
  },
  {
    "name": "Бутан",
    "english_name": "Bhutan",
    "code": "bt",
    "phone_code": "975"
  },
  {
    "name": "Ботсвана",
    "english_name": "Botswana",
    "code": "bw",
    "phone_code": "267"
  },
  {
    "name": "Беларусь",
    "english_name": "Belarus",
    "code": "by",
    "phone_code": "375"
  },
  {
    "name": "Белиз",
    "english_name": "Belize",
    "code": "bz",
    "phone_code": "501"
  },
  {
    "name": "Канада",
    "english_name": "Canada",
    "code": "ca",
    "phone_code": "1"
  },
  {
    "name": "Кокосовые (Килинг) Острова",
    "english_name": "Cocos (keeling) Islands",
    "code": "cc",
    "phone_code": "61"
  },
  {
    "name": "Конго, Демократическая Республика",
    "english_name": "Congo, The Democratic Republic Of The",
    "code": "cd",
    "phone_code": "243"
  },
  {
    "name": "Центрально-Африканская Республика",
    "english_name": "Central African Republic",
    "code": "cf",
    "phone_code": "236"
  },
  {
    "name": "Конго",
    "english_name": "Congo",
    "code": "cg",
    "phone_code": "242"
  },
  {
    "name": "Швейцария",
    "english_name": "Switzerland",
    "code": "ch",
    "phone_code": "41"
  },
  {
    "name": "Кот-д’Ивуар",
    "english_name": "Côte D'ivoire",
    "code": "ci",
    "phone_code": "225"
  },
  {
    "name": "Острова Кука",
    "english_name": "Cook Islands",
    "code": "ck",
    "phone_code": "682"
  },
  {
    "name": "Чили",
    "english_name": "Chile",
    "code": "cl",
    "phone_code": "56"
  },
  {
    "name": "Камерун",
    "english_name": "Cameroon",
    "code": "cm",
    "phone_code": "237"
  },
  {
    "name": "Китай",
    "english_name": "China",
    "code": "cn",
    "phone_code": "86"
  },
  {
    "name": "Колумбия",
    "english_name": "Colombia",
    "code": "co",
    "phone_code": "57"
  },
  {
    "name": "Коста-Рика",
    "english_name": "Costa Rica",
    "code": "cr",
    "phone_code": "506"
  },
  {
    "name": "Куба",
    "english_name": "Cuba",
    "code": "cu",
    "phone_code": "53"
  },
  {
    "name": "Кабо-Верде",
    "english_name": "Cape Verde",
    "code": "cv",
    "phone_code": "238"
  },
  {
    "name": "ликер кюрасо",
    "english_name": "Curaçao",
    "code": "cw",
    "phone_code": "599"
  },
  {
    "name": "Остров Рождества",
    "english_name": "Christmas Island",
    "code": "cx",
    "phone_code": "61"
  },
  {
    "name": "Кипр",
    "english_name": "Cyprus",
    "code": "cy",
    "phone_code": "357"
  },
  {
    "name": "Чешская Республика",
    "english_name": "Czech Republic",
    "code": "cz",
    "phone_code": "420"
  },
  {
    "name": "Германия",
    "english_name": "Germany",
    "code": "de",
    "phone_code": "49"
  },
  {
    "name": "Джибути",
    "english_name": "Djibouti",
    "code": "dj",
    "phone_code": "253"
  },
  {
    "name": "Дания",
    "english_name": "Denmark",
    "code": "dk",
    "phone_code": "45"
  },
  {
    "name": "Доминика",
    "english_name": "Dominica",
    "code": "dm",
    "phone_code": "1"
  },
  {
    "name": "Доминиканская Республика",
    "english_name": "Dominican Republic",
    "code": "do",
    "phone_code": "1"
  },
  {
    "name": "Алжир",
    "english_name": "Algeria",
    "code": "dz",
    "phone_code": "213"
  },
  {
    "name": "Эквадор",
    "english_name": "Ecuador",
    "code": "ec",
    "phone_code": "593"
  },
  {
    "name": "Эстония",
    "english_name": "Estonia",
    "code": "ee",
    "phone_code": "372"
  },
  {
    "name": "Египет",
    "english_name": "Egypt",
    "code": "eg",
    "phone_code": "20"
  },
  {
    "name": "Эритрея",
    "english_name": "Eritrea",
    "code": "er",
    "phone_code": "291"
  },
  {
    "name": "Испания",
    "english_name": "Spain",
    "code": "es",
    "phone_code": "34"
  },
  {
    "name": "Эфиопия",
    "english_name": "Ethiopia",
    "code": "et",
    "phone_code": "251"
  },
  {
    "name": "Финляндия",
    "english_name": "Finland",
    "code": "fi",
    "phone_code": "358"
  },
  {
    "name": "Фиджи",
    "english_name": "Fiji",
    "code": "fj",
    "phone_code": "679"
  },
  {
    "name": "Фолклендские (Мальвинские)",
    "english_name": "Falkland Islands (malvinas)",
    "code": "fk",
    "phone_code": "500"
  },
  {
    "name": "Микронезия, Федеративные Штаты",
    "english_name": "Micronesia, Federated States Of",
    "code": "fm",
    "phone_code": "691"
  },
  {
    "name": "Фарерские острова",
    "english_name": "Faroe Islands",
    "code": "fo",
    "phone_code": "298"
  },
  {
    "name": "Франция",
    "english_name": "France",
    "code": "fr",
    "phone_code": "33"
  },
  {
    "name": "Габон",
    "english_name": "Gabon",
    "code": "ga",
    "phone_code": "241"
  },
  {
    "name": "Великобритания",
    "english_name": "United Kingdom",
    "code": "gb",
    "phone_code": "44"
  },
  {
    "name": "Гренада",
    "english_name": "Grenada",
    "code": "gd",
    "phone_code": "1"
  },
  {
    "name": "Грузия",
    "english_name": "Georgia",
    "code": "ge",
    "phone_code": "995"
  },
  {
    "name": "Французская Гвиана",
    "english_name": "French Guyana",
    "code": "gf",
    "phone_code": "594"
  },
  {
    "name": "Гернси",
    "english_name": "Guernsey",
    "code": "gg",
    "phone_code": "44"
  },
  {
    "name": "Гана",
    "english_name": "Ghana",
    "code": "gh",
    "phone_code": "233"
  },
  {
    "name": "Гибралтар",
    "english_name": "Gibraltar",
    "code": "gi",
    "phone_code": "350"
  },
  {
    "name": "Гренландия",
    "english_name": "Greenland",
    "code": "gl",
    "phone_code": "299"
  },
  {
    "name": "Гамбия",
    "english_name": "Gambia",
    "code": "gm",
    "phone_code": "220"
  },
  {
    "name": "Гвинея",
    "english_name": "Guinea",
    "code": "gn",
    "phone_code": "224"
  },
  {
    "name": "Гваделупа",
    "english_name": "Guadeloupe",
    "code": "gp",
    "phone_code": "590"
  },
  {
    "name": "Экваториальная Гвинея",
    "english_name": "Equatorial Guinea",
    "code": "gq",
    "phone_code": "240"
  },
  {
    "name": "Греция",
    "english_name": "Greece",
    "code": "gr",
    "phone_code": "30"
  },
  {
    "name": "Гватемала",
    "english_name": "Guatemala",
    "code": "gt",
    "phone_code": "502"
  },
  {
    "name": "Гуам",
    "english_name": "Guam",
    "code": "gu",
    "phone_code": "1"
  },
  {
    "name": "Гвинея-Бисау",
    "english_name": "Guinea-bissau",
    "code": "gw",
    "phone_code": "245"
  },
  {
    "name": "Гайана",
    "english_name": "Guyana",
    "code": "gy",
    "phone_code": "592"
  },
  {
    "name": "Гонконг",
    "english_name": "Hong Kong",
    "code": "hk",
    "phone_code": "852"
  },
  {
    "name": "Гондурас",
    "english_name": "Honduras",
    "code": "hn",
    "phone_code": "504"
  },
  {
    "name": "Хорватия",
    "english_name": "Croatia",
    "code": "hr",
    "phone_code": "385"
  },
  {
    "name": "Гаити",
    "english_name": "Haiti",
    "code": "ht",
    "phone_code": "509"
  },
  {
    "name": "Венгрия",
    "english_name": "Hungary",
    "code": "hu",
    "phone_code": "36"
  },
  {
    "name": "Индонезия",
    "english_name": "Indonesia",
    "code": "id",
    "phone_code": "62"
  },
  {
    "name": "Ирландия",
    "english_name": "Ireland",
    "code": "ie",
    "phone_code": "353"
  },
  {
    "name": "Израиль",
    "english_name": "Israel",
    "code": "il",
    "phone_code": "972"
  },
  {
    "name": "Остров Мэн",
    "english_name": "Isle Of Man",
    "code": "im",
    "phone_code": "44"
  },
  {
    "name": "Исландия",
    "english_name": "Iceland",
    "code": "is",
    "phone_code": "354"
  },
  {
    "name": "Индия",
    "english_name": "India",
    "code": "in",
    "phone_code": "91"
  },
  {
    "name": "Британская территория Индийского океана",
    "english_name": "British Indian Ocean Territory",
    "code": "io",
    "phone_code": "246"
  },
  {
    "name": "Ирак",
    "english_name": "Iraq",
    "code": "iq",
    "phone_code": "964"
  },
  {
    "name": "Иран, Исламская Республика",
    "english_name": "Iran, Islamic Republic Of",
    "code": "ir",
    "phone_code": "98"
  },
  {
    "name": "Италия",
    "english_name": "Italy",
    "code": "it",
    "phone_code": "39"
  },
  {
    "name": "Джерси",
    "english_name": "Jersey",
    "code": "je",
    "phone_code": "44"
  },
  {
    "name": "Ямайка",
    "english_name": "Jamaica",
    "code": "jm",
    "phone_code": "1"
  },
  {
    "name": "Иордания",
    "english_name": "Jordan",
    "code": "jo",
    "phone_code": "962"
  },
  {
    "name": "Япония",
    "english_name": "Japan",
    "code": "jp",
    "phone_code": "81"
  },
  {
    "name": "Кения",
    "english_name": "Kenya",
    "code": "ke",
    "phone_code": "254"
  },
  {
    "name": "Киргизия",
    "english_name": "Kyrgyzstan",
    "code": "kg",
    "phone_code": "996"
  },
  {
    "name": "Камбоджа",
    "english_name": "Cambodia",
    "code": "kh",
    "phone_code": "855"
  },
  {
    "name": "Кирибати",
    "english_name": "Kiribati",
    "code": "ki",
    "phone_code": "686"
  },
  {
    "name": "Коморские острова",
    "english_name": "Comoros",
    "code": "km",
    "phone_code": "269"
  },
  {
    "name": "Сент-Китс и Невис",
    "english_name": "Saint Kitts and Nevis",
    "code": "kn",
    "phone_code": "1"
  },
  {
    "name": "Корейская Народно-Демократическая Республика",
    "english_name": "North Korea",
    "code": "kp",
    "phone_code": "850"
  },
  {
    "name": "Республика Корея",
    "english_name": "South Korea",
    "code": "kr",
    "phone_code": "82"
  },
  {
    "name": "Кувейт",
    "english_name": "Kuwait",
    "code": "kw",
    "phone_code": "965"
  },
  {
    "name": "Каймановы острова",
    "english_name": "Cayman Islands",
    "code": "ky",
    "phone_code": "1"
  },
  {
    "name": "Казахстан",
    "english_name": "Kazakhstan",
    "code": "kz",
    "phone_code": "7"
  },
  {
    "name": "Демократическая Республика Лао",
    "english_name": "Lao People's Democratic Republic",
    "code": "la",
    "phone_code": "856"
  },
  {
    "name": "Ливан",
    "english_name": "Lebanon",
    "code": "lb",
    "phone_code": "961"
  },
  {
    "name": "Санкт-Люсия",
    "english_name": "Saint Lucia",
    "code": "lc",
    "phone_code": "1"
  },
  {
    "name": "Лихтенштейн",
    "english_name": "Liechtenstein",
    "code": "li",
    "phone_code": "423"
  },
  {
    "name": "Шри Ланка",
    "english_name": "Sri Lanka",
    "code": "lk",
    "phone_code": "94"
  },
  {
    "name": "Либерия",
    "english_name": "Liberia",
    "code": "lr",
    "phone_code": "231"
  },
  {
    "name": "Лесото",
    "english_name": "Lesotho",
    "code": "ls",
    "phone_code": "266"
  },
  {
    "name": "Литва",
    "english_name": "Lithuania",
    "code": "lt",
    "phone_code": "370"
  },
  {
    "name": "Люксембург",
    "english_name": "Luxembourg",
    "code": "lu",
    "phone_code": "352"
  },
  {
    "name": "Латвия",
    "english_name": "Latvia",
    "code": "lv",
    "phone_code": "371"
  },
  {
    "name": "Ливия",
    "english_name": "Libya",
    "code": "ly",
    "phone_code": "218"
  },
  {
    "name": "Марокко",
    "english_name": "Morocco",
    "code": "ma",
    "phone_code": "212"
  },
  {
    "name": "Монако",
    "english_name": "Monaco",
    "code": "mc",
    "phone_code": "377"
  },
  {
    "name": "Молдова",
    "english_name": "Moldova, Republic Of",
    "code": "md",
    "phone_code": "373"
  },
  {
    "name": "Черногория",
    "english_name": "Montenegro",
    "code": "me",
    "phone_code": "382"
  },
  {
    "name": "Сен-Мартен",
    "english_name": "Saint Martin",
    "code": "mf",
    "phone_code": "590"
  },
  {
    "name": "Мадагаскар",
    "english_name": "Madagascar",
    "code": "mg",
    "phone_code": "261"
  },
  {
    "name": "Маршалловы острова",
    "english_name": "Marshall Islands",
    "code": "mh",
    "phone_code": "692"
  },
  {
    "name": "Бывшая югославская Республика Македония",
    "english_name": "Macedonia (FYROM)",
    "code": "mk",
    "phone_code": "389"
  },
  {
    "name": "Мали",
    "english_name": "Mali",
    "code": "ml",
    "phone_code": "223"
  },
  {
    "name": "Мьянма",
    "english_name": "Myanmar",
    "code": "mm",
    "phone_code": "95"
  },
  {
    "name": "Монголия",
    "english_name": "Mongolia",
    "code": "mn",
    "phone_code": "976"
  },
  {
    "name": "Макао",
    "english_name": "Macau",
    "code": "mo",
    "phone_code": "853"
  },
  {
    "name": "Северные Марианские острова",
    "english_name": "Northern Mariana Islands",
    "code": "mp",
    "phone_code": "1"
  },
  {
    "name": "Мартиника",
    "english_name": "Martinique",
    "code": "mq",
    "phone_code": "596"
  },
  {
    "name": "Мавритания",
    "english_name": "Mauritania",
    "code": "mr",
    "phone_code": "222"
  },
  {
    "name": "Монсеррат",
    "english_name": "Montserrat",
    "code": "ms",
    "phone_code": "1"
  },
  {
    "name": "Мальта",
    "english_name": "Malta",
    "code": "mt",
    "phone_code": "356"
  },
  {
    "name": "Маврикий",
    "english_name": "Mauritius",
    "code": "mu",
    "phone_code": "230"
  },
  {
    "name": "Мальдивы",
    "english_name": "Maldives",
    "code": "mv",
    "phone_code": "960"
  },
  {
    "name": "Малави",
    "english_name": "Malawi",
    "code": "mw",
    "phone_code": "265"
  },
  {
    "name": "Мексика",
    "english_name": "Mexico",
    "code": "mx",
    "phone_code": "52"
  },
  {
    "name": "Малайзия",
    "english_name": "Malaysia",
    "code": "my",
    "phone_code": "60"
  },
  {
    "name": "Мозамбик",
    "english_name": "Mozambique",
    "code": "mz",
    "phone_code": "258"
  },
  {
    "name": "Намибия",
    "english_name": "Namibia",
    "code": "na",
    "phone_code": "264"
  },
  {
    "name": "Новая Каледония",
    "english_name": "New Caledonia",
    "code": "nc",
    "phone_code": "687"
  },
  {
    "name": "Нигер",
    "english_name": "Niger",
    "code": "ne",
    "phone_code": "227"
  },
  {
    "name": "Норфолкские острова",
    "english_name": "Norfolk Islands",
    "code": "nf",
    "phone_code": "672"
  },
  {
    "name": "Нигерия",
    "english_name": "Nigeria",
    "code": "ng",
    "phone_code": "234"
  },
  {
    "name": "Никарагуа",
    "english_name": "Nicaragua",
    "code": "ni",
    "phone_code": "505"
  },
  {
    "name": "Нидерланды",
    "english_name": "Netherlands",
    "code": "nl",
    "phone_code": "31"
  },
  {
    "name": "Норвегия",
    "english_name": "Norway",
    "code": "no",
    "phone_code": "47"
  },
  {
    "name": "Непал",
    "english_name": "Nepal",
    "code": "np",
    "phone_code": "977"
  },
  {
    "name": "Науру",
    "english_name": "Nauru",
    "code": "nr",
    "phone_code": "674"
  },
  {
    "name": "Ниуэ",
    "english_name": "Niue",
    "code": "nu",
    "phone_code": "683"
  },
  {
    "name": "Новая Зеландия",
    "english_name": "New Zealand",
    "code": "nz",
    "phone_code": "64"
  },
  {
    "name": "Оман",
    "english_name": "Oman",
    "code": "om",
    "phone_code": "968"
  },
  {
    "name": "Панама",
    "english_name": "Panama",
    "code": "pa",
    "phone_code": "507"
  },
  {
    "name": "Перу",
    "english_name": "Peru",
    "code": "pe",
    "phone_code": "51"
  },
  {
    "name": "Французская Полинезия",
    "english_name": "French Polynesia",
    "code": "pf",
    "phone_code": "689"
  },
  {
    "name": "Папуа - Новая Гвинея",
    "english_name": "Papua New Guinea",
    "code": "pg",
    "phone_code": "675"
  },
  {
    "name": "Филиппины",
    "english_name": "Philippines",
    "code": "ph",
    "phone_code": "63"
  },
  {
    "name": "Пакистан",
    "english_name": "Pakistan",
    "code": "pk",
    "phone_code": "92"
  },
  {
    "name": "Польша",
    "english_name": "Poland",
    "code": "pl",
    "phone_code": "48"
  },
  {
    "name": "Сен-Пьер и Микелон",
    "english_name": "Saint Pierre And Miquelon",
    "code": "pm",
    "phone_code": "508"
  },
  {
    "name": "Питкэрн",
    "english_name": "Pitcairn Islands",
    "code": "pn",
    "phone_code": "870"
  },
  {
    "name": "Пуэрто-Рико",
    "english_name": "Puerto Rico",
    "code": "pr",
    "phone_code": "1"
  },
  {
    "name": "Палестина",
    "english_name": "Palestine",
    "code": "ps",
    "phone_code": "970"
  },
  {
    "name": "Португалия",
    "english_name": "Portugal",
    "code": "pt",
    "phone_code": "351"
  },
  {
    "name": "Палау",
    "english_name": "Palau",
    "code": "pw",
    "phone_code": "680"
  },
  {
    "name": "Парагвай",
    "english_name": "Paraguay",
    "code": "py",
    "phone_code": "595"
  },
  {
    "name": "Катар",
    "english_name": "Qatar",
    "code": "qa",
    "phone_code": "974"
  },
  {
    "name": "Реюньон",
    "english_name": "Réunion",
    "code": "re",
    "phone_code": "262"
  },
  {
    "name": "Румыния",
    "english_name": "Romania",
    "code": "ro",
    "phone_code": "40"
  },
  {
    "name": "Сербия",
    "english_name": "Serbia",
    "code": "rs",
    "phone_code": "381"
  },
  {
    "name": "Российская Федерация",
    "english_name": "Russian Federation",
    "code": "ru",
    "phone_code": "7"
  },
  {
    "name": "Руанда",
    "english_name": "Rwanda",
    "code": "rw",
    "phone_code": "250"
  },
  {
    "name": "Саудовская Аравия",
    "english_name": "Saudi Arabia",
    "code": "sa",
    "phone_code": "966"
  },
  {
    "name": "Соломоновы острова",
    "english_name": "Solomon Islands",
    "code": "sb",
    "phone_code": "677"
  },
  {
    "name": "Сейшельские острова",
    "english_name": "Seychelles",
    "code": "sc",
    "phone_code": "248"
  },
  {
    "name": "Судан",
    "english_name": "Sudan",
    "code": "sd",
    "phone_code": "249"
  },
  {
    "name": "Швеция",
    "english_name": "Sweden",
    "code": "se",
    "phone_code": "46"
  },
  {
    "name": "Сингапур",
    "english_name": "Singapore",
    "code": "sg",
    "phone_code": "65"
  },
  {
    "name": "Святой Елены, Вознесения и Тристан-да-Кунья",
    "english_name": "Saint Helena, Ascension And Tristan Da Cunha",
    "code": "sh",
    "phone_code": "290"
  },
  {
    "name": "Словения",
    "english_name": "Slovenia",
    "code": "si",
    "phone_code": "386"
  },
  {
    "name": "Словакия",
    "english_name": "Slovakia",
    "code": "sk",
    "phone_code": "421"
  },
  {
    "name": "Сьерра-Леоне",
    "english_name": "Sierra Leone",
    "code": "sl",
    "phone_code": "232"
  },
  {
    "name": "Сан-Марино",
    "english_name": "San Marino",
    "code": "sm",
    "phone_code": "378"
  },
  {
    "name": "Сенегал",
    "english_name": "Senegal",
    "code": "sn",
    "phone_code": "221"
  },
  {
    "name": "Сомали",
    "english_name": "Somalia",
    "code": "so",
    "phone_code": "252"
  },
  {
    "name": "Суринам",
    "english_name": "Suriname",
    "code": "sr",
    "phone_code": "597"
  },
  {
    "name": "южный Судан",
    "english_name": "South Sudan",
    "code": "ss",
    "phone_code": "211"
  },
  {
    "name": "Сан-Томе и Принсипи",
    "english_name": "Sao Tome And Principe",
    "code": "st",
    "phone_code": "239"
  },
  {
    "name": "Сальвадор",
    "english_name": "El Salvador",
    "code": "sv",
    "phone_code": "503"
  },
  {
    "name": "Синт-Маартен",
    "english_name": "Sint Maarten",
    "code": "sx",
    "phone_code": "1"
  },
  {
    "name": "Сирийская Арабская Республика",
    "english_name": "Syrian Arab Republic",
    "code": "sy",
    "phone_code": "963"
  },
  {
    "name": "Свазиленд",
    "english_name": "Swaziland",
    "code": "sz",
    "phone_code": "268"
  },
  {
    "name": "Острова Теркс и Кайкос",
    "english_name": "Turks and Caicos Islands",
    "code": "tc",
    "phone_code": "1"
  },
  {
    "name": "Чад",
    "english_name": "Chad",
    "code": "td",
    "phone_code": "235"
  },
  {
    "name": "Togo",
    "english_name": "Togo",
    "code": "tg",
    "phone_code": "228"
  },
  {
    "name": "Таиланд",
    "english_name": "Thailand",
    "code": "th",
    "phone_code": "66"
  },
  {
    "name": "Таджикистан",
    "english_name": "Tajikistan",
    "code": "tj",
    "phone_code": "992"
  },
  {
    "name": "Токелау",
    "english_name": "Tokelau",
    "code": "tk",
    "phone_code": "690"
  },
  {
    "name": "Тимор-Лешти",
    "english_name": "Timor-leste",
    "code": "tl",
    "phone_code": "670"
  },
  {
    "name": "Туркменистан",
    "english_name": "Turkmenistan",
    "code": "tm",
    "phone_code": "993"
  },
  {
    "name": "Тунис",
    "english_name": "Tunisia",
    "code": "tn",
    "phone_code": "216"
  },
  {
    "name": "Тонга",
    "english_name": "Tonga",
    "code": "to",
    "phone_code": "676"
  },
  {
    "name": "Турция",
    "english_name": "Turkey",
    "code": "tr",
    "phone_code": "90"
  },
  {
    "name": "Тринидад и Тобаго",
    "english_name": "Trinidad & Tobago",
    "code": "tt",
    "phone_code": "1"
  },
  {
    "name": "Тувалу",
    "english_name": "Tuvalu",
    "code": "tv",
    "phone_code": "688"
  },
  {
    "name": "Тайвань",
    "english_name": "Taiwan",
    "code": "tw",
    "phone_code": "886"
  },
  {
    "name": "Танзания, Объединенная Республика",
    "english_name": "Tanzania, United Republic Of",
    "code": "tz",
    "phone_code": "255"
  },
  {
    "name": "Украина",
    "english_name": "Ukraine",
    "code": "ua",
    "phone_code": "380"
  },
  {
    "name": "Уганда",
    "english_name": "Uganda",
    "code": "ug",
    "phone_code": "256"
  },
  {
    "name": "Соединенные Штаты",
    "english_name": "United States (USA)",
    "code": "us",
    "phone_code": "1"
  },
  {
    "name": "Уругвай",
    "english_name": "Uruguay",
    "code": "uy",
    "phone_code": "598"
  },
  {
    "name": "Узбекистан",
    "english_name": "Uzbekistan",
    "code": "uz",
    "phone_code": "998"
  },
  {
    "name": "Святейший Престол (Ватикан)",
    "english_name": "Holy See (vatican City State)",
    "code": "va",
    "phone_code": "379"
  },
  {
    "name": "Сент-Винсент и Гренадины",
    "english_name": "Saint Vincent & The Grenadines",
    "code": "vc",
    "phone_code": "1"
  },
  {
    "name": "Венесуэла, Боливарианская Республика",
    "english_name": "Venezuela, Bolivarian Republic Of",
    "code": "ve",
    "phone_code": "58"
  },
  {
    "name": "Британские Виргинские острова",
    "english_name": "British Virgin Islands",
    "code": "vg",
    "phone_code": "1"
  },
  {
    "name": "Американские Виргинские острова",
    "english_name": "US Virgin Islands",
    "code": "vi",
    "phone_code": "1"
  },
  {
    "name": "Вьетнам",
    "english_name": "Vietnam",
    "code": "vn",
    "phone_code": "84"
  },
  {
    "name": "Вануату",
    "english_name": "Vanuatu",
    "code": "vu",
    "phone_code": "678"
  },
  {
    "name": "Уоллис и Футуна",
    "english_name": "Wallis And Futuna",
    "code": "wf",
    "phone_code": "681"
  },
  {
    "name": "Самоа",
    "english_name": "Samoa",
    "code": "ws",
    "phone_code": "685"
  },
  {
    "name": "Косово",
    "english_name": "Kosovo",
    "code": "xk",
    "phone_code": "383"
  },
  {
    "name": "Йемен",
    "english_name": "Yemen",
    "code": "ye",
    "phone_code": "967"
  },
  {
    "name": "Майотта",
    "english_name": "Mayotte",
    "code": "yt",
    "phone_code": "262"
  },
  {
    "name": "Южная Африка",
    "english_name": "South Africa",
    "code": "za",
    "phone_code": "27"
  },
  {
    "name": "Замбия",
    "english_name": "Zambia",
    "code": "zm",
    "phone_code": "260"
  },
  {
    "name": "Зимбабве",
    "english_name": "Zimbabwe",
    "code": "zw",
    "phone_code": "263"
  }
]